SENTINEL-6              
1 46984U 20086A   24001.91491714 -.00000056  00000+0  20937-4 0  9996
2 46984  66.0389 198.6955 0007643 269.5300  90.4839 12.80929674145408
